NORAD_CAT_ID,OBJECT_NAME,OBJECT_TYPE,EPOCH,MEAN_MOTION,ECCENTRICITY,INCLINATION,RA_OF_ASC_NODE,ARG_OF_PERICENTER,MEAN_ANOMALY,BSTAR,MEAN_MOTION_DOT,MEAN_MOTION_DDOT,TLE_LINE0,TLE_LINE1,TLE_LINE2,SEMIMAJOR_AXIS,PERIOD,APOGEE,PERIGEE,DECAYED
49171.0,STARLINK-3107,PAYLOAD,2022-05-29 14:00:01,14.98323794,0.0003087,69.999,174.1887,280.0887,14.1919,-0.00039529,-4.806e-05,0.0,0 STARLINK-3107,1 49171U 21082AT  22149.58334491 -.00004806  00000-0 -39529-3 0  9991,2 49171  69.9990 174.1887 0003087 280.0887  14.1919 14.98323794  1302,6950.212,96.107,574.2230000000002,569.932,0.0
49171.0,STARLINK-3107,PAYLOAD,2022-05-29 19:06:00,14.98326866,0.00031,69.9982,173.6529,275.5928,84.4878,-1.4309e-05,-2.64e-06,0.0,0 STARLINK-3107,1 49171U 21082AT  22149.79583546 -.00000264  00000-0 -14309-4 0  9995,2 49171  69.9982 173.6529 0003100 275.5928  84.4878 14.98326866 40446,6950.203,96.107,574.222,569.913,0.0
49171.0,STARLINK-3107,PAYLOAD,2022-05-29 22:00:00,14.98285177,0.0003046,69.999,173.3482,273.5965,18.1694,0.005777,0.00069444,0.0,0 STARLINK-3107,1 49171U 21082AT  22149.91667824  .00069444  00000-0  57770-2 0  9991,2 49171  69.9990 173.3482 0003046 273.5965  18.1694 14.98285177 40458,6950.331999999999,96.11,574.314,570.0790000000002,0.0
49171.0,STARLINK-3107,PAYLOAD,2022-05-30 03:06:40,14.98327437,0.0003081,69.9981,172.8115,275.6928,84.3879,-3.4737e-05,-5.07e-06,0.0,0 STARLINK-3107,1 49171U 21082AT  22150.12963553 -.00000507  00000-0 -34737-4 0  9991,2 49171  69.9981 172.8115 0003081 275.6928  84.3879 14.98327437 40496,6950.201,96.107,574.207,569.924,0.0
49171.0,STARLINK-3107,PAYLOAD,2022-05-30 14:00:01,14.98331319,0.0003158,69.9988,171.6672,279.3709,7.3313,-0.00085344,-0.00010262,0.0,0 STARLINK-3107,1 49171U 21082AT  22150.58334491 -.00010262  00000-0 -85344-3 0  9992,2 49171  69.9988 171.6672 0003158 279.3709   7.3313 14.98331319  1300,6950.189,96.107,574.249,569.859,0.0
49171.0,STARLINK-3107,PAYLOAD,2022-05-30 22:00:00,14.98290061,0.0003129,69.9989,170.8267,273.2607,10.9325,0.0058695,0.00070578,0.0,0 STARLINK-3107,1 49171U 21082AT  22150.91667824  .00070578  00000-0  58695-2 0  9990,2 49171  69.9989 170.8267 0003129 273.2607  10.9325 14.98290061  1301,6950.316,96.11,574.356,570.007,0.0
49171.0,STARLINK-3107,PAYLOAD,2022-05-31 06:00:02,14.98341896,0.0003185,69.9992,169.9863,275.7401,5.9796,-0.0027028,-0.00032205,0.0,0 STARLINK-3107,1 49171U 21082AT  22151.25002315 -.00032205  00000-0 -27028-2 0  9999,2 49171  69.9992 169.9863 0003185 275.7401   5.9796 14.98341896 40657,6950.156,96.106,574.235,569.807,0.0
49171.0,STARLINK-3107,PAYLOAD,2022-05-31 22:00:00,14.982947199999998,0.0003154,69.999,168.3054,273.3923,3.2406,0.0057476,0.00069104,0.0,0 STARLINK-3107,1 49171U 21082AT  22151.91667824  .00069104  00000-0  57476-2 0  9990,2 49171  69.9990 168.3054 0003154 273.3923   3.2406 14.98294720 40752,6950.302,96.109,574.359,569.975,0.0
49171.0,STARLINK-3107,PAYLOAD,2022-06-01 14:00:01,14.98345383,0.0003165,69.9988,166.6246,279.5681,352.0184,-0.0020864,-0.0002491,0.0,0 STARLINK-3107,1 49171U 21082AT  22152.58334491 -.00024910  00000-0 -20864-2 0  9994,2 49171  69.9988 166.6246 0003165 279.5681 352.0184 14.98345383 40855,6950.145,96.106,574.21,569.811,0.0
49171.0,STARLINK-3107,PAYLOAD,2022-06-01 20:00:01,14.98306191,0.0003129,69.9991,165.9943,274.9677,264.7462,0.0033427,0.00039996,0.0,0 STARLINK-3107,1 49171U 21082AT  22152.83334491  .00039996  00000-0  33427-2 0  9999,2 49171  69.9991 165.9943 0003129 274.9677 264.7462 14.98306191  1308,6950.267,96.109,574.306,569.957,0.0
49171.0,STARLINK-3107,PAYLOAD,2022-06-02 17:37:55,14.98330491,0.0003103,69.9982,163.7215,276.8504,83.2302,5.6538e-05,5.82e-06,0.0,0 STARLINK-3107,1 49171U 21082AT  22153.73467390  .00000582  00000-0  56538-4 0  9993,2 49171  69.9982 163.7215 0003103 276.8504  83.2302 14.98330491 41039,6950.191,96.107,574.2130000000002,569.9,0.0
49171.0,STARLINK-3107,PAYLOAD,2022-06-03 09:39:16,14.98332138,0.0003119,69.9981,162.0383,276.3075,83.7728,5.6347e-05,5.79e-06,0.0,0 STARLINK-3107,1 49171U 21082AT  22154.40227216  .00000579  00000-0  56347-4 0  9993,2 49171  69.9981 162.0383 0003119 276.3075  83.7728 14.98332138 41139,6950.186,96.107,574.219,569.884,0.0
49171.0,STARLINK-3107,PAYLOAD,2022-06-04 03:16:44,14.98333488,0.0003123,69.9981,160.1867,276.2339,83.8464,5.3313e-05,5.43e-06,0.0,0 STARLINK-3107,1 49171U 21082AT  22155.13662992  .00000543  00000-0  53313-4 0  9999,2 49171  69.9981 160.1867 0003123 276.2339  83.8464 14.98333488 41241,6950.182,96.107,574.2180000000002,569.877,0.0
49171.0,STARLINK-3107,PAYLOAD,2022-06-04 09:41:16,14.98334694,0.0003137,69.9981,159.5133,275.9574,84.1228,5.262800000000001e-05,5.35e-06,0.0,0 STARLINK-3107,1 49171U 21082AT  22155.40366837  .00000535  00000-0  52628-4 0  9997,2 49171  69.9981 159.5133 0003137 275.9574  84.1228 14.98334694 41287,6950.178000000001,96.107,574.224,569.863,0.0
49171.0,STARLINK-3107,PAYLOAD,2022-06-05 22:00:00,14.98321797,0.0003157,70.0,155.6985,272.2283,326.7234,0.003048,0.00036458,0.0,0 STARLINK-3107,1 49171U 21082AT  22156.91667824  .00036458  00000-0  30480-2 0  9997,2 49171  70.0000 155.6985 0003157 272.2283 326.7234 14.98321797 41500,6950.218000000003,96.108,574.2769999999998,569.889,0.0
49171.0,STARLINK-3107,PAYLOAD,2022-06-06 06:00:00,14.98328828,0.0003146,70.0001,154.8581,276.6853,319.7637,-0.0027985,-0.00033325,0.0,0 STARLINK-3107,1 49171U 21082AT  22157.25001157 -.00033325  00000-0 -27985-2 0  9994,2 49171  70.0001 154.8581 0003146 276.6853 319.7637 14.98328828 41559,6950.196999999999,96.107,574.248,569.875,0.0
49171.0,STARLINK-3107,PAYLOAD,2022-06-06 14:00:01,14.98335696,0.0003082,69.9998,154.0176,278.1373,315.7742,-0.0039017,-0.00046348,0.0,0 STARLINK-3107,1 49171U 21082AT  22157.58334491 -.00046348  00000-0 -39017-2 0  9998,2 49171  69.9998 154.0176 0003082 278.1373 315.7742 14.98335696  1309,6950.175,96.107,574.182,569.898,0.0
49171.0,STARLINK-3107,PAYLOAD,2022-06-06 20:00:01,14.98280754,0.0003106,70.0,153.3873,273.2815,228.7455,0.0052424,0.00062943,0.0,0 STARLINK-3107,1 49171U 21082AT  22157.83334491  .00062943  00000-0  52424-2 0  9990,2 49171  70.0000 153.3873 0003106 273.2815 228.7455 14.98280754 41645,6950.345,96.11,574.369,570.0509999999998,0.0
49171.0,STARLINK-3107,PAYLOAD,2022-06-07 04:58:56,14.98323595,0.0003087,69.9979,152.4433,275.6249,84.4558,-0.00010931,-1.397e-05,0.0,0 STARLINK-3107,1 49171U 21082AT  22158.20759263 -.00001397  00000-0 -10931-3 0  9996,2 49171  69.9979 152.4433 0003087 275.6249  84.4558 14.98323595 41703,6950.2130000000025,96.107,574.2230000000002,569.932,0.0
49171.0,STARLINK-3107,PAYLOAD,2022-06-07 09:47:20,14.98324754,0.0003078,69.9979,151.9383,275.7138,84.367,-9.1117e-05,-1.18e-05,0.0,0 STARLINK-3107,1 49171U 21082AT  22158.40787191 -.00001180  00000-0 -91117-4 0  9995,2 49171  69.9979 151.9383 0003078 275.7138  84.3670 14.98324754 41734,6950.209,96.107,574.2130000000002,569.935,0.0
49171.0,STARLINK-3107,PAYLOAD,2022-06-08 09:49:21,14.98324458,0.0002946,69.998,149.4137,275.2086,84.8736,-7.167600000000001e-05,-9.48e-06,0.0,0 STARLINK-3107,1 49171U 21082AT  22159.40927562 -.00000948  00000-0 -71676-4 0  9993,2 49171  69.9980 149.4137 0002946 275.2086  84.8736 14.98324458 41880,6950.21,96.107,574.123,570.0269999999998,0.0
49171.0,STARLINK-3107,PAYLOAD,2022-06-08 16:13:53,14.98319299,0.0002926,69.9982,148.7404,278.1116,81.9711,3.8941e-05,3.72e-06,0.0,0 STARLINK-3107,1 49171U 21082AT  22159.67631808  .00000372  00000-0  38941-4 0  9994,2 49171  69.9982 148.7404 0002926 278.1116  81.9711 14.98319299 41928,6950.226,96.108,574.125,570.057,0.0
49171.0,STARLINK-3107,PAYLOAD,2022-06-09 05:02:58,14.98319882,0.0003005,69.9981,147.3939,275.551,84.5306,6.318300000000001e-05,6.61e-06,0.0,0 STARLINK-3107,1 49171U 21082AT  22160.21040064  .00000661  00000-0  63183-4 0  9991,2 49171  69.9981 147.3939 0003005 275.5510  84.5306 14.98319882 42000,6950.224,96.108,574.178,570.001,0.0
49171.0,STARLINK-3107,PAYLOAD,2022-06-09 16:15:55,14.98321322,0.000295,69.9982,146.2155,275.9529,84.1294,6.3892e-05,6.69e-06,0.0,0 STARLINK-3107,1 49171U 21082AT  22160.67772276  .00000669  00000-0  63892-4 0  9993,2 49171  69.9982 146.2155 0002950 275.9529  84.1294 14.98321322 42072,6950.22,96.108,574.135,570.034,0.0
49171.0,STARLINK-3107,PAYLOAD,2022-06-09 21:04:19,14.98322916,0.0002981,69.998,145.7105,275.9132,84.1687,7.1043e-05,7.55e-06,0.0,0 STARLINK-3107,1 49171U 21082AT  22160.87800256  .00000755  00000-0  71043-4 0  9998,2 49171  69.9980 145.7105 0002981 275.9132  84.1687 14.98322916 42103,6950.215,96.107,574.1519999999998,570.008,0.0
49171.0,STARLINK-3107,PAYLOAD,2022-06-10 05:04:59,14.98324225,0.0002976,69.9981,144.869,275.5941,84.4879,7.159399999999999e-05,7.61e-06,0.0,0 STARLINK-3107,1 49171U 21082AT  22161.21180316  .00000761  00000-0  71594-4 0  9993,2 49171  69.9981 144.8690 0002976 275.5941  84.4879 14.98324225 42157,6950.2109999999975,96.107,574.144,570.007,0.0
49171.0,STARLINK-3107,PAYLOAD,2022-06-10 16:17:56,14.98326075,0.000296,69.9983,143.6907,275.6007,84.4814,7.583899999999999e-05,8.12e-06,0.0,0 STARLINK-3107,1 49171U 21082AT  22161.67912367  .00000812  00000-0  75839-4 0  9995,2 49171  69.9983 143.6907 0002960 275.6007  84.4814 14.98326075 42226,6950.205,96.107,574.127,570.013,0.0
49171.0,STARLINK-3107,PAYLOAD,2022-06-11 08:19:16,14.98329769,0.0002973,69.9983,142.0074,275.4037,84.6783,8.4834e-05,9.19e-06,0.0,0 STARLINK-3107,1 49171U 21082AT  22162.34672225  .00000919  00000-0  84834-4 0  9999,2 49171  69.9983 142.0074 0002973 275.4037  84.6783 14.98329769 42320,6950.194,96.107,574.125,569.992,0.0
49171.0,STARLINK-3107,PAYLOAD,2022-06-12 03:32:53,14.98333729,0.0002988,69.9984,139.9876,275.3904,84.6914,8.743299999999999e-05,9.5e-06,0.0,0 STARLINK-3107,1 49171U 21082AT  22163.14783892  .00000950  00000-0  87433-4 0  9994,2 49171  69.9984 139.9876 0002988 275.3904  84.6914 14.98333729 42444,6950.181,96.107,574.123,569.97,0.0
